SL-8 R/B                
1 21088U 91006B   26076.53156301  .00000076  00000+0  61231-4 0  9999
2 21088  82.9460 164.2162 0022602  16.9308 353.8385 13.77495292765159
OKEAN-3                 
1 21397U 91039A   26076.65830763  .00002176  00000+0  15179-3 0  9994
2 21397  82.5198 329.1249 0013149 307.4541  52.5489 15.04862760866236
COSMOS 2151             
1 21422U 91042A   26076.82110592  .00001912  00000+0  15083-3 0  9998
2 21422  82.4931  75.8297 0013477  38.7491 321.4697 15.00138451864415
SL-14 R/B               
1 21423U 91042B   26076.86081624  .00000437  00000+0  52322-4 0  9995
2 21423  82.4938 212.5205 0016288 210.0281 150.0001 14.81838107854289
ERS-1                   
1 21574U 91050A   26076.76059536  .00000269  00000+0  10056-3 0  9997
2 21574  98.7875  95.1980 0032069 176.4037 183.7387 14.39455446816899
ARIANE 40 R/B           
1 21610U 91050F   26076.86169073  .00000263  00000+0  91187-4 0  9996
2 21610  98.1994 128.7908 0004105  63.4225 296.7386 14.42899544820178
INTERCOSMOS 25          
1 21819U 91086A   26076.58261129  .00001611  00000+0  30850-3 0  9997
2 21819  82.6040 305.2378 1486831  99.9293 277.2314 12.12028288497643
SL-8 R/B                
1 21876U 92008B   26076.87714887  .00000003  00000+0 -13305-4 0  9993
2 21876  82.9222 261.6859 0035828 111.1542   4.6037 13.75969652710549
SL-8 R/B                
1 21938U 92020B   26076.63958300  .00000055  00000+0  41830-4 0  9990
2 21938  82.9324 147.8596 0027528 275.5574 238.5416 13.75550091702220
USA 81                  
1 21949U 92023A   26076.41300554  .00000173  00000+0  56761-4 0  9993
2 21949  85.0070 126.9851 0002257  71.7173 288.4266 14.32370485 95895
COSMOS 2219             
1 22219U 92076A   26076.86808318 -.00000101  00000+0 -28150-4 0  9996
2 22219  71.0641   0.9730 0018502 195.6340 164.4214 14.14093550719539
SL-16 R/B               
1 22220U 92076B   26076.39290946  .00000152  00000+0  99467-4 0  9991
2 22220  71.0006 172.1483 0010578  82.1541 343.8892 14.16859685722924
COSMOS 2221             
1 22236U 92080A   26076.79636801  .00001794  00000+0  15646-3 0  9990
2 22236  82.5002 271.3136 0014730 160.2663 199.9132 14.96233078782000
SL-16 R/B               
1 22285U 92093B   26076.86657342  .00000131  00000+0  91230-4 0  9997
2 22285  71.0239 347.1022 0006288 285.3964  74.6464 14.15447604714316
COSMOS 2228             
1 22286U 92094A   26076.87416244  .00002186  00000+0  18621-3 0  9998
2 22286  82.5168 229.4732 0016603 274.8848  85.0479 14.97231939777280
SL-16 R/B               
1 22566U 93016B   26076.62507768 -.00000241  00000+0 -99405-4 0  9991
2 22566  71.0083 198.5152 0012260 303.7758  56.2196 14.15308302703294
COSMOS 2242             
1 22626U 93024A   26076.85986156  .00001866  00000+0  16140-3 0  9990
2 22626  82.5152 258.8994 0014922 278.9507  81.0026 14.96582696781610
